KUIPER-00016            
1 63732U 25088J   25196.83082170 -.00212585  00000+0 -10142-1 0  9999
2 63732  51.8792  84.8679 0009288  20.0875 340.0468 15.19502163 12175
KUIPER-00018            
1 63733U 25088K   25195.98639006  .00011420  00000+0  32033-3 0  9999
2 63733  51.8662  86.0963 0006198  26.9410 333.1897 15.37034788 12081
KUIPER-00019            
1 63734U 25088L   25196.10844669  .00011133  00000+0  31407-3 0  9993
2 63734  51.8677  85.4225 0003929  44.0122 316.1176 15.36888646 12105
KUIPER-00020            
1 63735U 25088M   25196.40789203  .00010786  00000+0  33332-3 0  9991
2 63735  51.8707  84.4128 0006667  32.1379 328.0012 15.34035442 12359
KUIPER-00021            
1 63736U 25088N   25196.42687932  .00011700  00000+0  36892-3 0  9991
2 63736  51.8663  84.5268 0006562  34.6924 325.4488 15.33303012 12183
KUIPER-00023            
1 63737U 25088P   25196.13320260  .00001457  00000+0  61258-4 0  9991
2 63737  51.8682  86.3226 0008612  25.7295 334.4115 15.30282267 12439
KUIPER-00024            
1 63738U 25088Q   25196.83068492  .00013362  00000+0  35877-3 0  9990
2 63738  51.8709  81.2938 0002104  86.2163 273.9064 15.38245885 12691
KUIPER-00025            
1 63739U 25088R   25196.38246629  .00012869  00000+0  36322-3 0  9998
2 63739  51.8655  84.2425 0005617  37.1728 322.9646 15.36718896 12472
