<?xml version="1.0" encoding="UTF-8"?>
<ndm xmlns:xsi="http://www.w3.org/2001/XMLSchema-instance" xsi:noNamespaceSchemaLocation="https://sanaregistry.org/r/ndmxml_unqualified/ndmxml-2.0.0-master-2.0.xsd">
<omm id="CCSDS_OMM_VERS" version="2.0">
<header><CREATION_DATE/><ORIGINATOR/></header><body><segment><metadata><OBJECT_NAME>KUIPER-00016</OBJECT_NAME><OBJECT_ID>2025-088J</OBJECT_ID><CENTER_NAME>EARTH</CENTER_NAME><REF_FRAME>TEME</REF_FRAME><TIME_SYSTEM>UTC</TIME_SYSTEM><MEAN_ELEMENT_THEORY>SGP4</MEAN_ELEMENT_THEORY></metadata><data><meanElements><EPOCH>2025-07-15T19:56:22.994880</EPOCH><MEAN_MOTION>15.19502163</MEAN_MOTION><ECCENTRICITY>.0009288</ECCENTRICITY><INCLINATION>51.8792</INCLINATION><RA_OF_ASC_NODE>84.8679</RA_OF_ASC_NODE><ARG_OF_PERICENTER>20.0875</ARG_OF_PERICENTER><MEAN_ANOMALY>340.0468</MEAN_ANOMALY></meanElements><tleParameters><EPHEMERIS_TYPE>0</EPHEMERIS_TYPE><CLASSIFICATION_TYPE>U</CLASSIFICATION_TYPE><NORAD_CAT_ID>63732</NORAD_CAT_ID><ELEMENT_SET_NO>999</ELEMENT_SET_NO><REV_AT_EPOCH>1217</REV_AT_EPOCH><BSTAR>-.10142E-1</BSTAR><MEAN_MOTION_DOT>-.212585E-2</MEAN_MOTION_DOT><MEAN_MOTION_DDOT>0</MEAN_MOTION_DDOT></tleParameters></data></segment></body></omm>
<omm id="CCSDS_OMM_VERS" version="2.0">
<header><CREATION_DATE/><ORIGINATOR/></header><body><segment><metadata><OBJECT_NAME>KUIPER-00018</OBJECT_NAME><OBJECT_ID>2025-088K</OBJECT_ID><CENTER_NAME>EARTH</CENTER_NAME><REF_FRAME>TEME</REF_FRAME><TIME_SYSTEM>UTC</TIME_SYSTEM><MEAN_ELEMENT_THEORY>SGP4</MEAN_ELEMENT_THEORY></metadata><data><meanElements><EPOCH>2025-07-14T23:40:24.101184</EPOCH><MEAN_MOTION>15.37034788</MEAN_MOTION><ECCENTRICITY>.0006198</ECCENTRICITY><INCLINATION>51.8662</INCLINATION><RA_OF_ASC_NODE>86.0963</RA_OF_ASC_NODE><ARG_OF_PERICENTER>26.9410</ARG_OF_PERICENTER><MEAN_ANOMALY>333.1897</MEAN_ANOMALY></meanElements><tleParameters><EPHEMERIS_TYPE>0</EPHEMERIS_TYPE><CLASSIFICATION_TYPE>U</CLASSIFICATION_TYPE><NORAD_CAT_ID>63733</NORAD_CAT_ID><ELEMENT_SET_NO>999</ELEMENT_SET_NO><REV_AT_EPOCH>1208</REV_AT_EPOCH><BSTAR>.32033E-3</BSTAR><MEAN_MOTION_DOT>.1142E-3</MEAN_MOTION_DOT><MEAN_MOTION_DDOT>0</MEAN_MOTION_DDOT></tleParameters></data></segment></body></omm>
<omm id="CCSDS_OMM_VERS" version="2.0">
<header><CREATION_DATE/><ORIGINATOR/></header><body><segment><metadata><OBJECT_NAME>KUIPER-00019</OBJECT_NAME><OBJECT_ID>2025-088L</OBJECT_ID><CENTER_NAME>EARTH</CENTER_NAME><REF_FRAME>TEME</REF_FRAME><TIME_SYSTEM>UTC</TIME_SYSTEM><MEAN_ELEMENT_THEORY>SGP4</MEAN_ELEMENT_THEORY></metadata><data><meanElements><EPOCH>2025-07-15T02:36:09.794016</EPOCH><MEAN_MOTION>15.36888646</MEAN_MOTION><ECCENTRICITY>.0003929</ECCENTRICITY><INCLINATION>51.8677</INCLINATION><RA_OF_ASC_NODE>85.4225</RA_OF_ASC_NODE><ARG_OF_PERICENTER>44.0122</ARG_OF_PERICENTER><MEAN_ANOMALY>316.1176</MEAN_ANOMALY></meanElements><tleParameters><EPHEMERIS_TYPE>0</EPHEMERIS_TYPE><CLASSIFICATION_TYPE>U</CLASSIFICATION_TYPE><NORAD_CAT_ID>63734</NORAD_CAT_ID><ELEMENT_SET_NO>999</ELEMENT_SET_NO><REV_AT_EPOCH>1210</REV_AT_EPOCH><BSTAR>.31407E-3</BSTAR><MEAN_MOTION_DOT>.11133E-3</MEAN_MOTION_DOT><MEAN_MOTION_DDOT>0</MEAN_MOTION_DDOT></tleParameters></data></segment></body></omm>
<omm id="CCSDS_OMM_VERS" version="2.0">
<header><CREATION_DATE/><ORIGINATOR/></header><body><segment><metadata><OBJECT_NAME>KUIPER-00020</OBJECT_NAME><OBJECT_ID>2025-088M</OBJECT_ID><CENTER_NAME>EARTH</CENTER_NAME><REF_FRAME>TEME</REF_FRAME><TIME_SYSTEM>UTC</TIME_SYSTEM><MEAN_ELEMENT_THEORY>SGP4</MEAN_ELEMENT_THEORY></metadata><data><meanElements><EPOCH>2025-07-15T09:47:21.871392</EPOCH><MEAN_MOTION>15.34035442</MEAN_MOTION><ECCENTRICITY>.0006667</ECCENTRICITY><INCLINATION>51.8707</INCLINATION><RA_OF_ASC_NODE>84.4128</RA_OF_ASC_NODE><ARG_OF_PERICENTER>32.1379</ARG_OF_PERICENTER><MEAN_ANOMALY>328.0012</MEAN_ANOMALY></meanElements><tleParameters><EPHEMERIS_TYPE>0</EPHEMERIS_TYPE><CLASSIFICATION_TYPE>U</CLASSIFICATION_TYPE><NORAD_CAT_ID>63735</NORAD_CAT_ID><ELEMENT_SET_NO>999</ELEMENT_SET_NO><REV_AT_EPOCH>1235</REV_AT_EPOCH><BSTAR>.33332E-3</BSTAR><MEAN_MOTION_DOT>.10786E-3</MEAN_MOTION_DOT><MEAN_MOTION_DDOT>0</MEAN_MOTION_DDOT></tleParameters></data></segment></body></omm>
<omm id="CCSDS_OMM_VERS" version="2.0">
<header><CREATION_DATE/><ORIGINATOR/></header><body><segment><metadata><OBJECT_NAME>KUIPER-00021</OBJECT_NAME><OBJECT_ID>2025-088N</OBJECT_ID><CENTER_NAME>EARTH</CENTER_NAME><REF_FRAME>TEME</REF_FRAME><TIME_SYSTEM>UTC</TIME_SYSTEM><MEAN_ELEMENT_THEORY>SGP4</MEAN_ELEMENT_THEORY></metadata><data><meanElements><EPOCH>2025-07-15T10:14:42.373248</EPOCH><MEAN_MOTION>15.33303012</MEAN_MOTION><ECCENTRICITY>.0006562</ECCENTRICITY><INCLINATION>51.8663</INCLINATION><RA_OF_ASC_NODE>84.5268</RA_OF_ASC_NODE><ARG_OF_PERICENTER>34.6924</ARG_OF_PERICENTER><MEAN_ANOMALY>325.4488</MEAN_ANOMALY></meanElements><tleParameters><EPHEMERIS_TYPE>0</EPHEMERIS_TYPE><CLASSIFICATION_TYPE>U</CLASSIFICATION_TYPE><NORAD_CAT_ID>63736</NORAD_CAT_ID><ELEMENT_SET_NO>999</ELEMENT_SET_NO><REV_AT_EPOCH>1218</REV_AT_EPOCH><BSTAR>.36892E-3</BSTAR><MEAN_MOTION_DOT>.117E-3</MEAN_MOTION_DOT><MEAN_MOTION_DDOT>0</MEAN_MOTION_DDOT></tleParameters></data></segment></body></omm>
<omm id="CCSDS_OMM_VERS" version="2.0">
<header><CREATION_DATE/><ORIGINATOR/></header><body><segment><metadata><OBJECT_NAME>KUIPER-00023</OBJECT_NAME><OBJECT_ID>2025-088P</OBJECT_ID><CENTER_NAME>EARTH</CENTER_NAME><REF_FRAME>TEME</REF_FRAME><TIME_SYSTEM>UTC</TIME_SYSTEM><MEAN_ELEMENT_THEORY>SGP4</MEAN_ELEMENT_THEORY></metadata><data><meanElements><EPOCH>2025-07-15T03:11:48.704640</EPOCH><MEAN_MOTION>15.30282267</MEAN_MOTION><ECCENTRICITY>.0008612</ECCENTRICITY><INCLINATION>51.8682</INCLINATION><RA_OF_ASC_NODE>86.3226</RA_OF_ASC_NODE><ARG_OF_PERICENTER>25.7295</ARG_OF_PERICENTER><MEAN_ANOMALY>334.4115</MEAN_ANOMALY></meanElements><tleParameters><EPHEMERIS_TYPE>0</EPHEMERIS_TYPE><CLASSIFICATION_TYPE>U</CLASSIFICATION_TYPE><NORAD_CAT_ID>63737</NORAD_CAT_ID><ELEMENT_SET_NO>999</ELEMENT_SET_NO><REV_AT_EPOCH>1243</REV_AT_EPOCH><BSTAR>.61258E-4</BSTAR><MEAN_MOTION_DOT>.1457E-4</MEAN_MOTION_DOT><MEAN_MOTION_DDOT>0</MEAN_MOTION_DDOT></tleParameters></data></segment></body></omm>
<omm id="CCSDS_OMM_VERS" version="2.0">
<header><CREATION_DATE/><ORIGINATOR/></header><body><segment><metadata><OBJECT_NAME>KUIPER-00024</OBJECT_NAME><OBJECT_ID>2025-088Q</OBJECT_ID><CENTER_NAME>EARTH</CENTER_NAME><REF_FRAME>TEME</REF_FRAME><TIME_SYSTEM>UTC</TIME_SYSTEM><MEAN_ELEMENT_THEORY>SGP4</MEAN_ELEMENT_THEORY></metadata><data><meanElements><EPOCH>2025-07-15T19:56:11.177088</EPOCH><MEAN_MOTION>15.38245885</MEAN_MOTION><ECCENTRICITY>.0002104</ECCENTRICITY><INCLINATION>51.8709</INCLINATION><RA_OF_ASC_NODE>81.2938</RA_OF_ASC_NODE><ARG_OF_PERICENTER>86.2163</ARG_OF_PERICENTER><MEAN_ANOMALY>273.9064</MEAN_ANOMALY></meanElements><tleParameters><EPHEMERIS_TYPE>0</EPHEMERIS_TYPE><CLASSIFICATION_TYPE>U</CLASSIFICATION_TYPE><NORAD_CAT_ID>63738</NORAD_CAT_ID><ELEMENT_SET_NO>999</ELEMENT_SET_NO><REV_AT_EPOCH>1269</REV_AT_EPOCH><BSTAR>.35877E-3</BSTAR><MEAN_MOTION_DOT>.13362E-3</MEAN_MOTION_DOT><MEAN_MOTION_DDOT>0</MEAN_MOTION_DDOT></tleParameters></data></segment></body></omm>
<omm id="CCSDS_OMM_VERS" version="2.0">
<header><CREATION_DATE/><ORIGINATOR/></header><body><segment><metadata><OBJECT_NAME>KUIPER-00025</OBJECT_NAME><OBJECT_ID>2025-088R</OBJECT_ID><CENTER_NAME>EARTH</CENTER_NAME><REF_FRAME>TEME</REF_FRAME><TIME_SYSTEM>UTC</TIME_SYSTEM><MEAN_ELEMENT_THEORY>SGP4</MEAN_ELEMENT_THEORY></metadata><data><meanElements><EPOCH>2025-07-15T09:10:45.087456</EPOCH><MEAN_MOTION>15.36718896</MEAN_MOTION><ECCENTRICITY>.0005617</ECCENTRICITY><INCLINATION>51.8655</INCLINATION><RA_OF_ASC_NODE>84.2425</RA_OF_ASC_NODE><ARG_OF_PERICENTER>37.1728</ARG_OF_PERICENTER><MEAN_ANOMALY>322.9646</MEAN_ANOMALY></meanElements><tleParameters><EPHEMERIS_TYPE>0</EPHEMERIS_TYPE><CLASSIFICATION_TYPE>U</CLASSIFICATION_TYPE><NORAD_CAT_ID>63739</NORAD_CAT_ID><ELEMENT_SET_NO>999</ELEMENT_SET_NO><REV_AT_EPOCH>1247</REV_AT_EPOCH><BSTAR>.36322E-3</BSTAR><MEAN_MOTION_DOT>.12869E-3</MEAN_MOTION_DOT><MEAN_MOTION_DDOT>0</MEAN_MOTION_DDOT></tleParameters></data></segment></body></omm>

</ndm>
